{"fetched_at":"2026-07-18T17:29:31.619Z","source":"https://celestrak.org/NORAD/elements/gp.php?GROUP=oneweb&FORMAT=JSON","constellation":"oneweb","records":[{"OBJECT_NAME":"ONEWEB-0697","OBJECT_ID":"2024-188K","EPOCH":"2026-07-18T04:49:41.598624","CLASSIFICATION_TYPE":"U","MEAN_MOTION":13.11416112,"ECCENTRICITY":0.00025707,"INCLINATION":87.8886,"RA_OF_ASC_NODE":14.8905,"ARG_OF_PERICENTER":95.7702,"MEAN_ANOMALY":264.3719,"EPHEMERIS_TYPE":0,"NORAD_CAT_ID":61603,"ELEMENT_SET_NO":999,"REV_AT_EPOCH":8851,"BSTAR":-0.0011534287,"MEAN_MOTION_DOT":-0.00000396,"MEAN_MOTION_DDOT":0},{"OBJECT_NAME":"ONEWEB-0698","OBJECT_ID":"2024-188L","EPOCH":"2026-07-18T00:38:14.434080","CLASSIFICATION_TYPE":"U","MEAN_MOTION":13.11415379,"ECCENTRICITY":0.00026141,"INCLINATION":87.8884,"RA_OF_ASC_NODE":14.9388,"ARG_OF_PERICENTER":115.6669,"MEAN_ANOMALY":244.4729,"EPHEMERIS_TYPE":0,"NORAD_CAT_ID":61604,"ELEMENT_SET_NO":999,"REV_AT_EPOCH":8851,"BSTAR":0.00093295031,"MEAN_MOTION_DOT":0.00000343,"MEAN_MOTION_DDOT":0},{"OBJECT_NAME":"ONEWEB-0699","OBJECT_ID":"2024-188M","EPOCH":"2026-07-18T01:31:43.162464","CLASSIFICATION_TYPE":"U","MEAN_MOTION":13.10372221,"ECCENTRICITY":0.00024726,"INCLINATION":87.8816,"RA_OF_ASC_NODE":30.1122,"ARG_OF_PERICENTER":96.1607,"MEAN_ANOMALY":263.9802,"EPHEMERIS_TYPE":0,"NORAD_CAT_ID":61605,"ELEMENT_SET_NO":999,"REV_AT_EPOCH":8735,"BSTAR":0.0016230757,"MEAN_MOTION_DOT":0.00000579,"MEAN_MOTION_DDOT":0},{"OBJECT_NAME":"ONEWEB-0700","OBJECT_ID":"2024-188N","EPOCH":"2026-07-18T07:04:00.848928","CLASSIFICATION_TYPE":"U","MEAN_MOTION":13.10369169,"ECCENTRICITY":0.00025104,"INCLINATION":87.8834,"RA_OF_ASC_NODE":29.9804,"ARG_OF_PERICENTER":94.4013,"MEAN_ANOMALY":265.7401,"EPHEMERIS_TYPE":0,"NORAD_CAT_ID":61606,"ELEMENT_SET_NO":999,"REV_AT_EPOCH":8737,"BSTAR":0.0013234304,"MEAN_MOTION_DOT":0.00000475,"MEAN_MOTION_DDOT":0},{"OBJECT_NAME":"ONEWEB-0701","OBJECT_ID":"2024-188P","EPOCH":"2026-07-18T05:38:29.386176","CLASSIFICATION_TYPE":"U","MEAN_MOTION":13.10369759,"ECCENTRICITY":0.00025977,"INCLINATION":87.8817,"RA_OF_ASC_NODE":30.0782,"ARG_OF_PERICENTER":97.3041,"MEAN_ANOMALY":262.8381,"EPHEMERIS_TYPE":0,"NORAD_CAT_ID":61607,"ELEMENT_SET_NO":999,"REV_AT_EPOCH":8737,"BSTAR":-0.00040002533,"MEAN_MOTION_DOT":-0.00000127,"MEAN_MOTION_DDOT":0},{"OBJECT_NAME":"ONEWEB-0702","OBJECT_ID":"2024-188Q","EPOCH":"2026-07-18T05:23:53.276352","CLASSIFICATION_TYPE":"U","MEAN_MOTION":13.11418208,"ECCENTRICITY":0.00028928,"INCLINATION":87.8906,"RA_OF_ASC_NODE":14.811,"ARG_OF_PERICENTER":91.1676,"MEAN_ANOMALY":268.9783,"EPHEMERIS_TYPE":0,"NORAD_CAT_ID":61608,"ELEMENT_SET_NO":999,"REV_AT_EPOCH":8855,"BSTAR":-0.00051137821,"MEAN_MOTION_DOT":-0.00000169,"MEAN_MOTION_DDOT":0},{"OBJECT_NAME":"ONEWEB-0704","OBJECT_ID":"2024-188R","EPOCH":"2026-07-18T01:41:28.797216","CLASSIFICATION_TYPE":"U","MEAN_MOTION":13.10369311,"ECCENTRICITY":0.00028734,"INCLINATION":87.8821,"RA_OF_ASC_NODE":30.1014,"ARG_OF_PERICENTER":87.5083,"MEAN_ANOMALY":272.6374,"EPHEMERIS_TYPE":0,"NORAD_CAT_ID":61609,"ELEMENT_SET_NO":999,"REV_AT_EPOCH":8733,"BSTAR":0.0010965001,"MEAN_MOTION_DOT":0.00000395,"MEAN_MOTION_DDOT":0},{"OBJECT_NAME":"ONEWEB-0705","OBJECT_ID":"2024-188S","EPOCH":"2026-07-18T01:48:48.894624","CLASSIFICATION_TYPE":"U","MEAN_MOTION":13.10368974,"ECCENTRICITY":0.00026312,"INCLINATION":87.882,"RA_OF_ASC_NODE":30.1064,"ARG_OF_PERICENTER":71.9449,"MEAN_ANOMALY":288.1965,"EPHEMERIS_TYPE":0,"NORAD_CAT_ID":61610,"ELEMENT_SET_NO":999,"REV_AT_EPOCH":7950,"BSTAR":0.0002758903,"MEAN_MOTION_DOT":0.00000109,"MEAN_MOTION_DDOT":0},{"OBJECT_NAME":"ONEWEB-0706","OBJECT_ID":"2024-188T","EPOCH":"2026-07-18T06:56:41.696736","CLASSIFICATION_TYPE":"U","MEAN_MOTION":13.10373115,"ECCENTRICITY":0.00024315,"INCLINATION":87.8819,"RA_OF_ASC_NODE":30.0672,"ARG_OF_PERICENTER":84.6767,"MEAN_ANOMALY":275.4637,"EPHEMERIS_TYPE":0,"NORAD_CAT_ID":61611,"ELEMENT_SET_NO":999,"REV_AT_EPOCH":8745,"BSTAR":0.0019939782,"MEAN_MOTION_DOT":0.00000709,"MEAN_MOTION_DDOT":0},{"OBJECT_NAME":"ONEWEB-0707","OBJECT_ID":"2024-188U","EPOCH":"2026-07-18T01:36:35.306784","CLASSIFICATION_TYPE":"U","MEAN_MOTION":13.10369748,"ECCENTRICITY":0.00024384,"INCLINATION":87.8823,"RA_OF_ASC_NODE":30.1069,"ARG_OF_PERICENTER":86.7405,"MEAN_ANOMALY":273.4001,"EPHEMERIS_TYPE":0,"NORAD_CAT_ID":61612,"ELEMENT_SET_NO":999,"REV_AT_EPOCH":8736,"BSTAR":0.0015781392,"MEAN_MOTION_DOT":0.00000564,"MEAN_MOTION_DDOT":0},{"OBJECT_NAME":"ONEWEB-0708","OBJECT_ID":"2024-188V","EPOCH":"2026-07-18T05:43:21.403488","CLASSIFICATION_TYPE":"U","MEAN_MOTION":13.10369332,"ECCENTRICITY":0.00019444,"INCLINATION":87.8813,"RA_OF_ASC_NODE":30.0885,"ARG_OF_PERICENTER":70.8433,"MEAN_ANOMALY":289.2905,"EPHEMERIS_TYPE":0,"NORAD_CAT_ID":61613,"ELEMENT_SET_NO":999,"REV_AT_EPOCH":8736,"BSTAR":-0.00075918386,"MEAN_MOTION_DOT":-0.00000252,"MEAN_MOTION_DDOT":0}]}
